[{"OBJECT_NAME":"STARLINK-5868","OBJECT_ID":"2023-064AM","EPOCH":"2026-03-09T13:49:59.093760","MEAN_MOTION":14.98329823,"ECCENTRICITY":0.0003085,"INCLINATION":69.9998,"RA_OF_ASC_NODE":124.6886,"ARG_OF_PERICENTER":262.6495,"MEAN_ANOMALY":97.4314,"EPHEMERIS_TYPE":0,"CLASSIFICATION_TYPE":"U","NORAD_CAT_ID":56483,"ELEMENT_SET_NO":999,"REV_AT_EPOCH":15572,"BSTAR":-1.2666e-5,"MEAN_MOTION_DOT":-2.44e-6,"MEAN_MOTION_DDOT":0},{"OBJECT_NAME":"HYPSO-2","OBJECT_ID":"2024-149BR","EPOCH":"2026-03-09T15:24:17.277696","MEAN_MOTION":14.98259029,"ECCENTRICITY":0.00013898,"INCLINATION":97.6894,"RA_OF_ASC_NODE":146.3679,"ARG_OF_PERICENTER":74.8032,"MEAN_ANOMALY":285.3344,"EPHEMERIS_TYPE":0,"CLASSIFICATION_TYPE":"U","NORAD_CAT_ID":60531,"ELEMENT_SET_NO":999,"REV_AT_EPOCH":8514,"BSTAR":0.00033979817,"MEAN_MOTION_DOT":3.981e-5,"MEAN_MOTION_DDOT":0}]
