STARLINK-5868           
1 56483U 23064AM  26068.57637840 -.00000244  00000+0 -12666-4 0  9999
2 56483  69.9998 124.6886 0003085 262.6495  97.4314 14.98329823155720
HYPSO-2                 
1 60531U 24149BR  26068.64186663  .00003981  00000+0  33980-3 0  9993
2 60531  97.6894 146.3679 0001390  74.8032 285.3344 14.98259029 85149
